OBJECT_NAME,OBJECT_ID,EPOCH,MEAN_MOTION,ECCENTRICITY,INCLINATION,RA_OF_ASC_NODE,ARG_OF_PERICENTER,MEAN_ANOMALY,EPHEMERIS_TYPE,CLASSIFICATION_TYPE,NORAD_CAT_ID,ELEMENT_SET_NO,REV_AT_EPOCH,BSTAR,MEAN_MOTION_DOT,MEAN_MOTION_DDOT
ONEWEB-0292,2021-083A,2026-07-12T18:16:09.840864,13.13470233,.0001847,87.8972,315.1478,96.0520,264.0819,0,U,49186,999,23428,-.59368E-3,-.204E-5,0
ONEWEB-0303,2021-083B,2026-07-12T19:09:34.172352,13.18684299,.0001762,87.9180,330.3631,92.4657,267.6677,0,U,49187,999,23335,.29774E-4,.25E-6,0
ONEWEB-0306,2021-083C,2026-07-12T18:55:01.040736,13.18684590,.0001951,87.9180,330.3529,100.5191,259.6161,0,U,49188,999,23339,.32745E-4,.26E-6,0
ONEWEB-0307,2021-083D,2026-07-12T18:07:37.003296,13.13469785,.0001951,87.8972,315.1468,97.0295,263.1056,0,U,49189,999,23428,-.14207E-2,-.506E-5,0
ONEWEB-0320,2021-083E,2026-07-12T19:24:08.477280,13.18687110,.0001917,87.9187,330.3651,98.1380,261.9970,0,U,49190,999,23335,.28844E-4,.24E-6,0
ONEWEB-0321,2021-083F,2026-07-12T17:32:45.413088,13.20772615,.0002021,87.9188,269.3452,103.6309,256.5050,0,U,49191,999,24020,.1444E-3,.72E-6,0
ONEWEB-0322,2021-083G,2026-07-12T18:01:32.765088,13.13470224,.0001998,87.8974,315.1474,111.8443,248.2899,0,U,49192,999,23427,-.86377E-3,-.303E-5,0
ONEWEB-0324,2021-083H,2026-07-12T18:45:18.944928,13.18686523,.0002105,87.9194,330.3611,96.0005,264.1367,0,U,49193,999,23337,-.44904E-5,.11E-6,0
ONEWEB-0325,2021-083J,2026-07-12T18:50:09.637728,13.18686674,.0001726,87.9179,330.3653,98.8310,261.3018,0,U,49194,999,23338,-.1988E-3,-.65E-6,0
ONEWEB-0326,2021-083K,2026-07-12T19:12:14.122944,13.18686039,.0001661,87.9194,330.3631,92.2679,267.8643,0,U,49195,999,23337,-.25186E-4,.3E-7,0
ONEWEB-0327,2021-083L,2026-07-12T19:11:49.887744,13.18685998,.0001455,87.9178,330.3653,92.6765,267.4534,0,U,49196,999,23339,.4589E-5,.15E-6,0
ONEWEB-0328,2021-083M,2026-07-12T17:46:55.081056,13.13469240,.0002072,87.8989,315.1252,99.0497,261.0867,0,U,49197,999,23425,-.58674E-3,-.202E-5,0
ONEWEB-0331,2021-083N,2026-07-12T19:02:17.967264,13.18684666,.0001732,87.9194,330.3583,87.1714,272.9616,0,U,49198,999,23338,.11198E-3,.57E-6,0
ONEWEB-0333,2021-083P,2026-07-12T17:39:36.340992,13.13468986,.0001874,87.8977,315.1502,100.1897,259.9443,0,U,49199,999,23426,-.36628E-3,-.121E-5,0
ONEWEB-0334,2021-083Q,2026-07-12T17:53:20.235840,13.20769410,.0002326,87.9191,269.3516,117.2451,242.8920,0,U,49200,999,24016,.12966E-3,.66E-6,0
ONEWEB-0335,2021-083R,2026-07-12T17:32:17.212128,13.13464878,.0001814,87.8978,315.1482,95.5729,264.5607,0,U,49201,999,23427,.41082E-4,.28E-6,0
ONEWEB-0336,2021-083S,2026-07-12T18:40:32.566944,13.13469253,.000188,87.8975,315.1340,90.9203,269.2141,0,U,49202,999,23427,.7747E-3,.296E-5,0
ONEWEB-0337,2021-083T,2026-07-12T18:54:59.260896,13.13469235,.0002039,87.8972,315.1375,95.7047,264.4314,0,U,49203,999,23427,.79343E-3,.303E-5,0
ONEWEB-0338,2021-083U,2026-07-12T17:20:36.992832,13.20770698,.0002037,87.9166,269.3620,118.6723,241.4616,0,U,49204,999,24018,-.17867E-4,.6E-7,0
ONEWEB-0339,2021-083V,2026-07-12T08:09:11.241216,13.13468769,.00021467,87.8980,315.2198,112.5273,247.6083,0,U,49205,999,23419,.58250506E-3,.225E-5,0
ONEWEB-0340,2021-083W,2026-07-12T18:42:52.886592,13.18687276,.0001915,87.9192,330.3670,94.1161,266.0190,0,U,49206,999,23334,.18977E-4,.2E-6,0
ONEWEB-0341,2021-083X,2026-07-12T18:52:35.194080,13.18687351,.0002245,87.9178,330.3661,90.6607,269.4783,0,U,49207,999,23336,-.72118E-4,-.16E-6,0
ONEWEB-0342,2021-083Y,2026-07-12T17:30:20.383776,13.20766871,.0002475,87.9185,269.3502,102.4780,257.6630,0,U,49208,999,24015,-.27223E-2,-.1094E-4,0
ONEWEB-0343,2021-083Z,2026-07-12T09:58:25.301568,13.18687896,.00021207,87.9175,330.4386,107.0612,253.0752,0,U,49209,999,23336,.17158426E-3,.81E-6,0
ONEWEB-0344,2021-083AA,2026-07-12T19:00:02.045376,13.13469078,.0002218,87.8975,315.1423,93.8682,266.2701,0,U,49210,999,23425,.96759E-3,.366E-5,0
ONEWEB-0345,2021-083AB,2026-07-12T18:47:51.789984,13.13469746,.0002211,87.8982,315.1294,96.4063,263.7318,0,U,49211,999,23426,.72319E-3,.277E-5,0
ONEWEB-0346,2021-083AC,2026-07-12T18:59:52.488672,13.18687323,.0001506,87.9166,330.3632,76.6031,283.5269,0,U,49212,999,23335,.20269E-4,.21E-6,0
ONEWEB-0348,2021-083AD,2026-07-12T17:15:47.312640,13.20772241,.0002187,87.9187,269.3542,82.7228,277.4154,0,U,49213,999,24018,.98298E-4,.53E-6,0
ONEWEB-0350,2021-083AE,2026-07-12T19:14:52.051776,13.13470977,.0001614,87.8988,315.1296,138.9530,221.1721,0,U,49214,999,23429,.41019E-3,.163E-5,0
ONEWEB-0351,2021-083AF,2026-07-12T17:05:52.923840,13.20770017,.0002689,87.9190,269.3540,104.4712,255.6720,0,U,49215,999,24014,.2042E-3,.96E-6,0
ONEWEB-0352,2021-083AG,2026-07-12T18:33:13.983264,13.13469909,.0002231,87.8974,315.1411,109.6697,250.4672,0,U,49216,999,23438,.21638E-3,.92E-6,0
ONEWEB-0354,2021-083AH,2026-07-12T15:55:46.558848,13.20770774,.0001883,87.9140,269.3708,117.3096,242.8229,0,U,49217,999,24017,-.63656E-5,.1E-6,0
ONEWEB-0355,2021-083AJ,2026-07-09T07:09:49.844448,13.13300713,.00020436,87.8970,315.8320,101.5704,258.5654,0,U,49218,999,23380,.92726532E-3,.351E-5,0
ONEWEB-0357,2021-083AK,2026-07-12T17:40:00.368832,13.20769678,.0002221,87.9199,269.3403,105.3950,254.7428,0,U,49219,999,24018,.6798E-4,.41E-6,0
JILIN-1 GAOFEN 2D,2021-086A,2026-07-12T19:01:15.130272,15.10855671,.0034232,97.6503,316.4993,58.6613,301.7960,0,U,49256,999,26458,.13541E-3,.2216E-4,0
SHIYAN-10 01 (SY-10 01),2021-087A,2026-07-11T07:57:43.728768,2.00607950,.69134948,63.1223,217.3032,269.8247,17.7803,0,U,49258,999,3501,0,.744E-5,0
LANDSAT 9,2021-088A,2026-07-12T19:26:57.987168,14.57094607,.0001135,98.2271,263.6763,89.3092,270.8236,0,U,49260,999,25473,.43632E-4,.151E-5,0
CS1,2021-088B,2026-07-12T16:42:11.706048,15.35416414,.0010863,97.3755,256.9838,355.6860,4.4288,0,U,49261,999,26433,.25624E-3,.8752E-4,0
CS2,2021-088C,2026-07-12T17:55:46.409088,15.37136755,.0008542,97.3810,259.5576,0.5781,359.5471,0,U,49262,999,26444,.31657E-3,.11443E-3,0
CUTE,2021-088D,2026-07-12T18:26:46.245984,16.13668871,.0007377,97.3999,295.7938,302.5697,57.4875,0,U,49263,999,26664,.13342E-2,.1535479E-1,.1864E-2
CUPID,2021-088E,2026-07-12T16:43:04.995840,15.26355067,.0010994,97.3858,254.5969,341.4220,18.6615,0,U,49264,999,26407,.17104E-3,.4378E-4,0
ONEWEB-0332,2021-090A,2026-07-12T19:03:39.953088,13.14503407,.0001948,87.8971,284.6065,111.3032,248.8305,0,U,49279,999,23094,.64569E-4,.37E-6,0
ONEWEB-0347,2021-090B,2026-07-12T17:25:27.891264,13.20769904,.000185,87.9213,269.3475,104.4006,255.7332,0,U,49280,999,23441,.16663E-3,.81E-6,0
ONEWEB-0349,2021-090C,2026-07-12T18:11:31.075584,13.20769574,.0002017,87.9197,269.3450,105.0180,255.1177,0,U,49281,999,23320,-.15082E-3,-.48E-6,0
ONEWEB-0353,2021-090D,2026-07-12T18:52:15.155328,13.14502632,.0001941,87.8975,284.6041,107.1064,253.0278,0,U,49282,999,23094,.60777E-3,.238E-5,0
ONEWEB-0356,2021-090E,2026-07-12T18:09:06.498144,13.20770403,.0001273,87.9186,269.3403,86.2747,273.8532,0,U,49283,999,23320,.30277E-4,.25E-6,0
ONEWEB-0358,2021-090F,2026-07-12T17:12:06.570144,13.20730495,.000171,87.9190,269.3552,96.1952,263.9376,0,U,49284,999,23392,.4192E-4,.3E-6,0
ONEWEB-0359,2021-090G,2026-07-12T16:58:47.752032,13.20770356,.0002107,87.9190,269.3489,90.7217,269.4157,0,U,49285,999,23390,.20077E-3,.95E-6,0
ONEWEB-0360,2021-090H,2026-07-12T18:33:22.231008,13.20771179,.0002172,87.9195,269.3420,100.1217,260.0161,0,U,49286,999,23322,.22317E-3,.104E-5,0
ONEWEB-0361,2021-090J,2026-07-12T18:06:40.928832,13.20772481,.0002065,87.9188,269.3449,94.9720,265.1649,0,U,49287,999,23367,.94996E-4,.52E-6,0
ONEWEB-0362,2021-090K,2026-07-12T19:16:45.813792,13.19724717,.0002444,87.9199,299.8753,100.9489,259.1918,0,U,49288,999,23029,.43047E-3,.185E-5,0
ONEWEB-0363,2021-090L,2026-07-12T16:39:25.278048,13.20771932,.0001775,87.9192,269.3569,94.5875,265.5461,0,U,49289,999,23367,.11444E-3,.6E-6,0
ONEWEB-0364,2021-090M,2026-07-12T17:35:09.757248,13.20770120,.0002216,87.9171,269.3595,95.8451,264.2935,0,U,49290,999,23481,.12415E-3,.63E-6,0
ONEWEB-0365,2021-090N,2026-07-12T06:46:10.416000,13.19726554,.0002274,87.9187,299.9742,112.4727,247.6646,0,U,49291,999,22973,-.77156E-4,-.18E-6,0
ONEWEB-0366,2021-090P,2026-07-12T18:47:41.569728,13.14501736,.000202,87.8973,284.6067,98.5020,261.6338,0,U,49292,999,23092,.53978E-3,.213E-5,0
ONEWEB-0367,2021-090Q,2026-07-12T18:27:17.604000,13.20773461,.0002174,87.9194,269.3430,102.8208,257.3169,0,U,49293,999,23320,.11045E-3,.58E-6,0
ONEWEB-0368,2021-090R,2026-07-12T17:49:43.912704,13.20771556,.0001537,87.9177,269.3559,118.3091,241.8198,0,U,49294,999,23435,-.74416E-5,.1E-6,0
ONEWEB-0369,2021-090S,2026-07-12T19:23:35.037024,13.19726484,.0001965,87.9177,299.8723,105.3485,254.7865,0,U,49295,999,22979,.12835E-3,.64E-6,0
ONEWEB-0370,2021-090T,2026-07-12T16:51:32.688288,13.20771938,.000235,87.9185,269.3569,96.9065,263.2336,0,U,49296,999,23323,.12076E-3,.62E-6,0
ONEWEB-0371,2021-090U,2026-07-12T17:45:46.528704,13.19725158,.0002059,87.9189,299.8799,101.8148,258.3216,0,U,49297,999,22982,-.60466E-4,-.11E-6,0
ONEWEB-0372,2021-090V,2026-07-12T16:36:46.584576,13.20770464,.00021,87.9188,269.3600,99.5125,260.6246,0,U,49298,999,23320,-.52796E-3,-.202E-5,0
ONEWEB-0373,2021-090W,2026-07-12T17:13:20.747136,13.20773005,.0002014,87.9180,269.3555,99.1697,260.9664,0,U,49299,999,23439,-.14053E-3,-.44E-6,0
ONEWEB-0374,2021-090X,2026-07-12T18:29:24.482400,13.14503317,.0001611,87.8972,284.6011,87.0574,273.0740,0,U,49300,999,23092,.15955E-3,.72E-6,0
ONEWEB-0375,2021-090Y,2026-07-12T16:56:22.898112,13.20772455,.0001756,87.9186,269.3493,84.8852,275.2481,0,U,49301,999,23389,.14732E-3,.73E-6,0
ONEWEB-0376,2021-090Z,2026-07-12T06:48:26.184096,13.19725746,.0001952,87.9190,299.9701,107.0737,253.0609,0,U,49302,999,22976,-.8506E-4,-.21E-6,0
ONEWEB-0377,2021-090AA,2026-07-12T16:37:11.352864,13.20773500,.0001917,87.9192,269.3544,93.1605,266.9747,0,U,49303,999,23388,.85036E-4,.48E-6,0
ONEWEB-0378,2021-090AB,2026-07-12T17:06:17.687808,13.20771806,.0001898,87.9182,269.3539,99.3553,260.7795,0,U,49304,999,23315,.31944E-4,.26E-6,0
